[{"OBJECT_NAME":"STRIX-BETA","OBJECT_ID":"2022-020A","EPOCH":"2026-03-09T19:26:29.889888","MEAN_MOTION":15.76952977,"ECCENTRICITY":0.00056276,"INCLINATION":97.5704,"RA_OF_ASC_NODE":163.502,"ARG_OF_PERICENTER":250.1372,"MEAN_ANOMALY":109.9287,"EPHEMERIS_TYPE":0,"CLASSIFICATION_TYPE":"U","NORAD_CAT_ID":51847,"ELEMENT_SET_NO":999,"REV_AT_EPOCH":22299,"BSTAR":0.0015320612,"MEAN_MOTION_DOT":0.0025428,"MEAN_MOTION_DDOT":0},{"OBJECT_NAME":"STARLINK-36870","OBJECT_ID":"2026-035U","EPOCH":"2026-03-09T22:00:01.999584","MEAN_MOTION":15.86833139,"ECCENTRICITY":0.00013767,"INCLINATION":97.2676,"RA_OF_ASC_NODE":1.2838,"ARG_OF_PERICENTER":89.1714,"MEAN_ANOMALY":25.6486,"EPHEMERIS_TYPE":0,"CLASSIFICATION_TYPE":"U","NORAD_CAT_ID":67897,"ELEMENT_SET_NO":999,"REV_AT_EPOCH":379,"BSTAR":-0.0062535552,"MEAN_MOTION_DOT":-0.01392445,"MEAN_MOTION_DDOT":0}]
